0 ARIANE 44L+ DEB
1 23239U 92021J   13280.84287565 -.00000036  00000-0  00000+0 0  1623
2 23239 003.3021 227.6281 6985649 069.9040 055.3782 02.23796985165196
0 ARIANE 44L+ DEB
1 23239U 92021J   13282.12280442 -.00000042  00000-0  00000+0 0  1631
2 23239 003.2983 227.1140 6985354 070.8412 006.5609 02.23797928165226
0 ARIANE 44L+ DEB
1 23239U 92021J   13287.90810818  .00000006  00000-0  00000+0 0  1648
2 23239 003.2951 224.8944 6982078 075.0351 347.5978 02.23795851165350
0 ARIANE 44L+ DEB
1 23239U 92021J   13287.95325007  .00000006  00000-0  00000+0 0  1655
2 23239 003.2902 224.8248 6985356 075.0508 023.9326 02.23802025165353
0 ARIANE 44L+ DEB
1 23239U 92021J   13289.74154424 -.00000010  00000-0  00000+0 0  1664
2 23239 003.2880 224.1110 6985640 076.3531 024.7067 02.23803755165391
0 ARIANE 44L+ DEB
1 23239U 92021J   13290.16999485 -.00000018  00000-0  00000+0 0  1675
2 23239 003.2874 223.9323 6986045 076.6721 009.8931 02.23804847165400
0 ARIANE 44L+ DEB
1 23239U 92021J   13294.19243679 -.00000090  00000-0  00000+0 0  1680
2 23239 003.2828 222.3272 6986223 079.6011 010.7001 02.23806541165499
